Placename,County,Country,lon,lat
Tinriland, Carlow,Ireland,-6.8957413,52.7969671
Tullow, Carlow,Ireland,-6.7371517,52.802547
Urlingford, Kilkenny,Ireland,NA,NA
Thomastown, Kilkenny,Ireland,-7.1388211,52.5270825
Taghmon, Wexford,Ireland,-6.6546699,52.3229838
Wexford Borough, Wexford,Ireland,-6.4633381,52.336916
Stratford-on-Slaney, Wicklow,Ireland,-6.6750765,52.9878852
Tinahely, Wicklow,Ireland,-6.4631844,52.7997634
Wicklow Town, Wicklow,Ireland,NA,NA
Swords, Fingal,Ireland,-6.2197406,53.4557467
Allenwood, Kildare, Ireland,-6.8618406,53.2839545
Athy Town, Kildare, Ireland,-6.9857281,52.9918336
Ballitore, Kildare, Ireland,NA,NA
Ballymore Eustace, Kildare, Ireland,-6.6148809,53.1330099
Ballyoulster, Kildare, Ireland,-6.5151111,53.3403634
Ballyroe, Kildare, Ireland,-6.9437523,52.956216
Ballysax, Kildare, Ireland,-6.81287,53.12651
Brownstown, Kildare, Ireland,-6.94318,53.27041
Adamstown, Wexford, Ireland,-6.7185567,52.3935687
Ballycanew, Wexford, Ireland,-6.3049672,52.6106782
Ballycullane, Wexford, Ireland,NA,NA
Ballygeary (or Rosslare Harbour), Wexford, Ireland,-6.3414908,52.2513061
Ballyhack, Wexford, Ireland,-6.964192,52.2484749
Ballysimon, Wexford, Ireland,-6.4872215,52.5232771
Barntown, Wexford, Ireland,NA,NA
Bridgetown, Wexford, Ireland,-6.549064,52.2302422
Arklow Town, Wicklow, Ireland,-6.1599293,52.7976935
Ashford, Wicklow, Ireland,-6.108289,53.0107896
Aughrim, Wicklow, Ireland,NA,NA
Avoca, Wicklow, Ireland,-6.2140891,52.8586664
Baltinglass, Wicklow, Ireland,-6.71098,52.9407807
Blessington, Wicklow, Ireland,-6.5340687,53.1696579
Bray, Wicklow, Ireland,-6.1110741,53.200903
Arklow Town,Wicklow, Ireland,-6.1599293,52.7976935
Ashford,Wicklow, Ireland,-6.108289,53.0107896
Aughrim,Wicklow, Ireland,NA,NA
Avoca,Wicklow, Ireland,-6.2140891,52.8586664
Baltinglass,Wicklow, Ireland,-6.71098,52.9407807
Blessington,Wicklow, Ireland,-6.5340687,53.1696579
Bray,Wicklow, Ireland,-6.1110741,53.200903
Carnew,Wicklow, Ireland,-6.4992316,52.7096658
Donard,Wicklow, Ireland,NA,NA
Dunlavin,Wicklow, Ireland,-6.7016395,53.0578764
Enniskerry,Wicklow, Ireland,-6.1707299,53.1935037
Glenealy,Wicklow, Ireland,-6.1445729,52.9666341
Greystones,Wicklow, Ireland,-6.0793414,53.1491175
Kilcoole,Wicklow, Ireland,-6.0645861,53.1062723
Kilmacanogue,Wicklow, Ireland,NA,NA
Kilpedder,Wicklow, Ireland,-6.1055471,53.1103735
Laragh,Wicklow, Ireland,-6.3004389,53.0089293
Newcastle,Wicklow, Ireland,NA,NA
Newtownmountkennedy,Wicklow, Ireland,NA,NA
Rathdrum,Wicklow, Ireland,-6.2311012,52.9323123
Rathnew,Wicklow, Ireland,-6.082812,52.9946004
Roundwood,Wicklow, Ireland,-6.2241877,53.0657875
Shillelagh,Wicklow, Ireland,-6.5334605,52.7545156
Ballon,Carlow, Ireland,NA,NA
Borris,Carlow, Ireland,-6.9230824,52.5998053
Adamstown,Wexford, Ireland,-6.7185567,52.3935687
Ballycanew,Wexford, Ireland,-6.3049672,52.6106782
Ballycullane,Wexford, Ireland,NA,NA
Ballygeary (or Rosslare Harbour),Wexford, Ireland,-6.3414908,52.2513061
Ballyhack,Wexford, Ireland,-6.964192,52.2484749
Ballysimon,Wexford, Ireland,-6.4872215,52.5232771
Barntown,Wexford, Ireland,NA,NA
Bridgetown,Wexford, Ireland,-6.549064,52.2302422
Camolin,Wexford, Ireland,-6.4263356,52.6156787
Campile,Wexford, Ireland,-6.9412808,52.2876617
Castle Ellis,Wexford, Ireland,-6.61987,52.52144
Castlebridge,Wexford, Ireland,-6.4502872,52.3824281
Clongeen,Wexford, Ireland,-6.7733493,52.2966589
Clonroche,Wexford, Ireland,NA,NA
Coolgreany,Wexford, Ireland,-6.2360077,52.7647077
Courtown Harbour,Wexford, Ireland,NA,NA
Danescastle,Wexford, Ireland,-6.7311899,52.2418678
Duncannon,Wexford, Ireland,-6.9325606,52.2206117
Duncormick,Wexford, Ireland,-6.6550542,52.2285412
Enniscorthy Town,Wexford, Ireland,NA,NA
Ferns,Wexford, Ireland,-6.4980105,52.5909249
Fethard-on-Sea,Wexford, Ireland,-6.8402182,52.1923021
Ford,Wexford, Ireland,-6.454469,52.351292
Gorey,Wexford, Ireland,NA,NA
Grahormac,Wexford, Ireland,NA,NA
Kilmore Quay,Wexford, Ireland,-6.5863919,52.1757194
Kilrane,Wexford, Ireland,-6.3549143,52.2419402
Murntown,Wexford, Ireland,-6.5222437,52.28724
New Ross Town,Wexford, Ireland,NA,NA
Newbawn,Wexford, Ireland,NA,NA
Oilgate,Wexford, Ireland,NA,NA
Piercetown,Wexford, Ireland,-6.48747,52.28786
Rosslare,Wexford, Ireland,-6.3892254,52.2720275
Ballitore,Kildare, Ireland,NA,NA
Ballymore Eustace,Kildare, Ireland,-6.6148809,53.1330099
Ballyoulster,Kildare, Ireland,-6.5151111,53.3403634
Ballyroe,Kildare, Ireland,-6.9437523,52.956216
Ballysax,Kildare, Ireland,-6.81287,53.12651
Brownstown,Kildare, Ireland,-6.94318,53.27041
Carragh,Kildare, Ireland,-6.7290731,53.2373698
Castledermot,Kildare, Ireland,NA,NA
Celbridge,Kildare, Ireland,-6.5384589,53.339897
Clane,Kildare, Ireland,-6.6870404,53.293785
Coill Dubh (or Blackwood),Kildare, Ireland,-6.8170729,53.2938748
Derrinturn,Kildare, Ireland,NA,NA
Droichead Nua (formerly Newbridge),Kildare, Ireland,NA,NA
Grangemore,Kildare, Ireland,-6.7132364,53.1176426
Johnstown,Kildare, Ireland,-6.6217975,53.2370579
Kilberry,Kildare, Ireland,-7.016987,53.0311398
Kilcock,Kildare, Ireland,-6.6681233,53.3994266
Kilcullen,Kildare, Ireland,-6.7452791,53.1302865
Kildare,Kildare, Ireland,-6.9095683,53.1589342
Kill,Kildare, Ireland,-6.5905306,53.2487063
Kilmeage,Kildare, Ireland,-6.8399263,53.2510535
Ladytown,Kildare, Ireland,-6.7365414,53.1999245
Leixlip,Kildare, Ireland,-6.4900033,53.3638428
Maddenstown,Kildare, Ireland,-6.86764,53.13653
Maynooth,Kildare, Ireland,-6.5918499,53.3812896
Milltown,Kildare, Ireland,-6.8611927,53.2051083
Monasterevin,Kildare, Ireland,-7.060377,53.1400651
Naas Town,Kildare, Ireland,-6.659308,53.2205654
Nurney,Kildare, Ireland,-6.9482121,53.0966332
Prosperous,Kildare, Ireland,-6.7550083,53.2881253
Rathangan,Kildare, Ireland,-6.9945422,53.2210179
Robertstown,Kildare, Ireland,-6.8153164,53.269268
Dublin,Dublin, Ireland,NA,NA
Newcastle,Dublin, Ireland,NA,NA
Rush,Dublin, Ireland,-6.0911586,53.5256684
Chapelizod,Dublin, Ireland,-6.3462465,53.34784
Glencullen,DúnLaoghaire–Rathdown, Dublin,NA,NA
Balbriggan,Fingal, Dublin,-6.1820798,53.6083194
Ballyboghil,Fingal, Ireland,-6.2675954,53.520206
Donabate,Fingal, Ireland,-6.1504482,53.4853365
Garristown,Fingal, Ireland,-6.3835624,53.5668673
Kinsealy-Drinan,Fingal, Ireland,-6.1763644,53.4245123
Loughshinny,Fingal, Ireland,NA,NA
Lusk,Fingal, Ireland,-6.1658841,53.5263264
Malahide,Fingal, Ireland,-6.1501378,53.4509236
Naul,Fingal, Ireland,-6.2889999,53.5850362
Oldtown,Fingal, Ireland,-6.3154307,53.522678
Portmarnock,Fingal, Ireland,NA,NA
Portrane,Fingal, Ireland,-6.11462,53.4932
Rivermeade,Fingal, Ireland,-6.2915242,53.4530488
Rush,Fingal, Ireland,-6.0911586,53.5256684
Skerries,Fingal, Ireland,NA,NA
Balbriggan,Fingal, Dublin,-6.1820798,53.6083194
Ballyboghil,Fingal, Ireland,-6.2675954,53.520206
Ballon,Carlow, Ireland,NA,NA
Borris,Carlow, Ireland,-6.9230824,52.5998053
Carlow Town,Carlow, Ireland,-6.9341359,52.8365072
Hacketstown,Carlow, Ireland,-6.5586053,52.8653857
Kernanstown,Carlow, Ireland,-6.8860186,52.8362809
Leighlinbridge,Carlow, Ireland,-6.974807,52.7357705
Muinebeag (formerly Bagenalstown),Carlow, Ireland,NA,NA
Rathvilly,Carlow, Ireland,-6.6960481,52.8798345
Bunclody-Carrickduff,Carlow and Wexford, Ireland,-6.652193,52.6550857
Graiguenamanagh- Tinnahinch,CarlowandKilkenny, Ireland,NA,NA
Bunclody-Carrickduff,CarlowandWexford, Ireland,-6.652193,52.6550857
Clonegal,CarlowandWexford, Ireland,-6.6477303,52.6948009
